STARLINK-37956          
1 69711U 26147H   26201.25004630 -.02361350  00000+0 -19516-1 0  9999
2 69711  97.2836 237.9347 0001820  71.0324  38.5696 15.73747313  4556
STARLINK-38043          
1 69712U 26147J   26201.03733640  .00166573  00000+0  85031-3 0  9999
2 69712  97.2840 237.7190 0001426  96.1838 263.9593 15.80907386  4620
STARLINK-38020          
1 69713U 26147K   26201.25004630 -.02497788  00000+0 -20208-1 0  9996
2 69713  97.2840 237.9394 0001823  70.6096  49.7991 15.74463869  4553
STARLINK-38059          
1 69714U 26147L   26201.25004630 -.00882489  00000+0 -73491-2 0  9994
2 69714  97.2842 237.9380 0001554  68.5274  47.8189 15.72538469  4551
STARLINK-38061          
1 69715U 26147M   26200.52867195  .00166763  00000+0  85280-3 0  9995
2 69715  97.2822 237.1863 0000273  37.1076 323.0211 15.80867548  4543
STARLINK-38060          
1 69716U 26147N   26201.28753614  .00200092  00000+0  10186-2 0  9996
2 69716  97.2842 237.9913 0000989   8.9022 351.2263 15.80879349  4666
STARLINK-38040          
1 69717U 26147P   26201.25004630 -.02620074  00000+0 -18088-1 0  9999
2 69717  97.2838 237.9531 0001898  67.3722  81.6192 15.78232614  4642
STARLINK-37989          
1 69718U 26147Q   26201.25004630 -.02671687  00000+0 -21348-1 0  9999
2 69718  97.2844 237.9483 0001885  75.0527  67.0560 15.74378337  4647
STARLINK-38039          
1 69719U 26147R   26201.03207443  .00206830  00000+0  10517-2 0  9990
2 69719  97.2832 237.7257 0001157  92.1053 268.0348 15.80886654  4626
STARLINK-38003          
1 69720U 26147S   26201.09462851  .00169777  00000+0  86936-3 0  9991
2 69720  97.2809 237.7918 0002893 339.2246  20.8905 15.80827987  4631
STARLINK-38014          
1 69721U 26147T   26201.09387280  .00147476  00000+0  75756-3 0  9994
2 69721  97.2835 237.7951 0000703  22.8431 337.2868 15.80820800  4637
STARLINK-37915          
1 69722U 26147U   26201.09312446  .00070414  00000+0  36453-3 0  9995
2 69722  97.2840 237.7963 0001305  88.0724 272.0694 15.80867578  4631
STARLINK-38007          
1 69723U 26147V   26201.03207768  .00405860  00000+0  19669-2 0  9996
2 69723  97.2803 237.7242 0001855 280.7452  79.3608 15.81427441  4624
STARLINK-38008          
1 69724U 26147W   26201.09162050  .00162203  00000+0  83152-3 0  9997
2 69724  97.2832 237.7982 0001394 355.1281   4.9973 15.80826028  4636
STARLINK-38021          
1 69725U 26147X   26201.09086908  .00082099  00000+0  42434-3 0  9997
2 69725  97.2837 237.7997 0001383  94.6583 265.4844 15.80866926  4638
STARLINK-38015          
1 69726U 26147Y   26201.25004630 -.00218637  00000+0 -14974-2 0  9996
2 69726  97.2853 237.9468 0000968  86.4641  47.5355 15.75272787  4641
STARLINK-38010          
1 69727U 26147Z   26201.06689262  .00143063  00000+0  94317-3 0  9994
2 69727  97.2834 237.6780 0000717  93.2492 266.8855 15.75211739  4626
SXM-11                  
1 69728U 26148A   26201.23801573  .00000009  00000+0  00000+0 0  9990
2 69728   0.0983 264.9303 0002055 186.8407 171.3954  1.00270653   371
HAIYANG-2E              
1 69737U 26149A   26201.01912279 -.00000047  00000+0 -28545-5 0  9997
2 69737  99.3444 207.8783 0001612  87.9889 272.1447 13.79314797  2483
CZ-4B R/B               
1 69738U 26149B   26201.29890409  .00000043  00000+0  31873-4 0  9999
2 69738  99.3219 209.6823 0197925 315.3595  43.1793 14.30068759  2868
STARLINK-38033          
1 69739U 26150A   26201.08536305  .00191346  00000+0  97794-3 0  9991
2 69739  97.2839  39.7289 0001370  96.3661 263.7763 15.80816017  4098
STARLINK-38076          
1 69740U 26150B   26201.12152417  .00104920  00000+0  69467-3 0  9994
2 69740  97.2841  39.6788 0000769 128.0371 232.0964 15.75224200  4091
STARLINK-38074          
1 69741U 26150C   26201.25004630 -.00181007  00000+0 -12351-2 0  9994
2 69741  97.2851  39.8928 0001253  91.2648  97.1514 15.75253392  4105
STARLINK-38041          
1 69742U 26150D   26201.25004630 -.00225615  00000+0 -15455-2 0  9997
2 69742  97.2863  39.8705 0001438  86.5001  47.9001 15.75285647  4109
STARLINK-38087          
1 69743U 26150E   26201.25004630 -.00179277  00000+0 -12233-2 0  9991
2 69743  97.2853  39.8870 0001300  86.3288  90.0906 15.75249019  4101
STARLINK-38078          
1 69744U 26150F   26201.08052843  .00145467  00000+0  74717-3 0  9990
2 69744  97.2842  39.7354 0003426  59.7744 300.3863 15.80822759  4099
STARLINK-38047          
1 69745U 26150G   26201.25004630 -.00184170  00000+0 -12573-2 0  9998
2 69745  97.2863  39.8737 0000668  74.1021  70.3191 15.75253706  4107
STARLINK-38046          
1 69746U 26150H   26201.25004630 -.00108995  00000+0 -73851-3 0  9997
2 69746  97.2845  39.9141 0001297  97.0166 141.3973 15.75212444  4102
STARLINK-38067          
1 69747U 26150J   26201.10987861  .00104132  00000+0  68968-3 0  9998
2 69747  97.2845  39.6949 0000643 116.1539 243.9792 15.75219101  4090
STARLINK-37988          
1 69748U 26150K   26201.10811403  .00171550  00000+0  11282-2 0  9991
2 69748  97.2845  39.6970 0000799  96.6899 263.4457 15.75187659  4095
