OBJECT_NAME,OBJECT_ID,EPOCH,MEAN_MOTION,ECCENTRICITY,INCLINATION,RA_OF_ASC_NODE,ARG_OF_PERICENTER,MEAN_ANOMALY,EPHEMERIS_TYPE,CLASSIFICATION_TYPE,NORAD_CAT_ID,ELEMENT_SET_NO,REV_AT_EPOCH,BSTAR,MEAN_MOTION_DOT,MEAN_MOTION_DDOT
STARLINK-37956,2026-147H,2026-07-20T06:00:04.000320,15.73747313,.00018208,97.2836,237.9347,71.0324,38.5696,0,U,69711,999,455,-.19516413E-1,-.236135E-1,0
STARLINK-38043,2026-147J,2026-07-20T00:53:45.864960,15.80907386,.00014263,97.2840,237.7190,96.1838,263.9593,0,U,69712,999,462,.85031003E-3,.166573E-2,0
STARLINK-38020,2026-147K,2026-07-20T06:00:04.000320,15.74463869,.0001823,97.2840,237.9394,70.6096,49.7991,0,U,69713,999,455,-.20208363E-1,-.2497788E-1,0
STARLINK-38059,2026-147L,2026-07-20T06:00:04.000320,15.72538469,.00015547,97.2842,237.9380,68.5274,47.8189,0,U,69714,999,455,-.73490618E-2,-.882489E-2,0
STARLINK-38061,2026-147M,2026-07-19T12:41:17.256480,15.80867548,.0000273,97.2822,237.1863,37.1076,323.0211,0,U,69715,999,454,.85280438E-3,.166763E-2,0
STARLINK-38060,2026-147N,2026-07-20T06:54:03.122496,15.80879349,.00009892,97.2842,237.9913,8.9022,351.2263,0,U,69716,999,466,.10186343E-2,.200092E-2,0
STARLINK-38040,2026-147P,2026-07-20T06:00:04.000320,15.78232614,.0001898,97.2838,237.9531,67.3722,81.6192,0,U,69717,999,464,-.18088295E-1,-.2620074E-1,0
STARLINK-37989,2026-147Q,2026-07-20T06:00:04.000320,15.74378337,.00018859,97.2844,237.9483,75.0527,67.0560,0,U,69718,999,464,-.21348374E-1,-.2671687E-1,0
STARLINK-38039,2026-147R,2026-07-20T00:46:11.230752,15.80886654,.0001157,97.2832,237.7257,92.1053,268.0348,0,U,69719,999,462,.10517399E-2,.20683E-2,0
STARLINK-38003,2026-147S,2026-07-20T02:16:15.903264,15.80827987,.00028934,97.2809,237.7918,339.2246,20.8905,0,U,69720,999,463,.86935883E-3,.169777E-2,0
STARLINK-38014,2026-147T,2026-07-20T02:15:10.609920,15.80820800,.0000703,97.2835,237.7951,22.8431,337.2868,0,U,69721,999,463,.75756106E-3,.147476E-2,0
STARLINK-37915,2026-147U,2026-07-20T02:14:05.953344,15.80867578,.0001305,97.2840,237.7963,88.0724,272.0694,0,U,69722,999,463,.36452746E-3,.70414E-3,0
STARLINK-38007,2026-147V,2026-07-20T00:46:11.511552,15.81427441,.0001855,97.2803,237.7242,280.7452,79.3608,0,U,69723,999,462,.196693E-2,.40586E-2,0
STARLINK-38008,2026-147W,2026-07-20T02:11:56.011200,15.80826028,.0001394,97.2832,237.7982,355.1281,4.9973,0,U,69724,999,463,.83152203E-3,.162203E-2,0
STARLINK-38021,2026-147X,2026-07-20T02:10:51.088512,15.80866926,.00013832,97.2837,237.7997,94.6583,265.4844,0,U,69725,999,463,.42434192E-3,.82099E-3,0
STARLINK-38015,2026-147Y,2026-07-20T06:00:04.000320,15.75272787,.00009689,97.2853,237.9468,86.4641,47.5355,0,U,69726,999,464,-.14974182E-2,-.218637E-2,0
STARLINK-38010,2026-147Z,2026-07-20T01:36:19.522368,15.75211739,.00007173,97.2834,237.6780,93.2492,266.8855,0,U,69727,999,462,.94316673E-3,.143063E-2,0
SXM-11,2026-148A,2026-07-20T05:42:44.559072,1.00270653,.00020556,0.0983,264.9303,186.8407,171.3954,0,U,69728,999,37,0,.9E-7,0
HAIYANG-2E,2026-149A,2026-07-20T00:27:32.209056,13.79314797,.00016128,99.3444,207.8783,87.9889,272.1447,0,U,69737,999,248,-.2854542E-5,-.47E-6,0
CZ-4B R/B,2026-149B,2026-07-20T07:10:25.313376,14.30068759,.01979252,99.3219,209.6823,315.3595,43.1793,0,U,69738,999,286,.31873416E-4,.43E-6,0
STARLINK-38033,2026-150A,2026-07-20T02:02:55.367520,15.80816017,.00013702,97.2839,39.7289,96.3661,263.7763,0,U,69739,999,409,.97794455E-3,.191346E-2,0
STARLINK-38076,2026-150B,2026-07-20T02:54:59.688288,15.75224200,.00007699,97.2841,39.6788,128.0371,232.0964,0,U,69740,999,409,.69467375E-3,.10492E-2,0
STARLINK-38074,2026-150C,2026-07-20T06:00:04.000320,15.75253392,.00012536,97.2851,39.8928,91.2648,97.1514,0,U,69741,999,410,-.12351361E-2,-.181007E-2,0
STARLINK-38041,2026-150D,2026-07-20T06:00:04.000320,15.75285647,.00014387,97.2863,39.8705,86.5001,47.9001,0,U,69742,999,410,-.1545506E-2,-.225615E-2,0
STARLINK-38087,2026-150E,2026-07-20T06:00:04.000320,15.75249019,.00013009,97.2853,39.8870,86.3288,90.0906,0,U,69743,999,410,-.12232942E-2,-.179277E-2,0
STARLINK-38078,2026-150F,2026-07-20T01:55:57.656352,15.80822759,.00034268,97.2842,39.7354,59.7744,300.3863,0,U,69744,999,409,.74716797E-3,.145467E-2,0
STARLINK-38047,2026-150G,2026-07-20T06:00:04.000320,15.75253706,.0000668,97.2863,39.8737,74.1021,70.3191,0,U,69745,999,410,-.12572683E-2,-.18417E-2,0
STARLINK-38046,2026-150H,2026-07-20T06:00:04.000320,15.75212444,.00012971,97.2845,39.9141,97.0166,141.3973,0,U,69746,999,410,-.7385054E-3,-.108995E-2,0
STARLINK-38067,2026-150J,2026-07-20T02:38:13.511904,15.75219101,.00006435,97.2845,39.6949,116.1539,243.9792,0,U,69747,999,409,.68967694E-3,.104132E-2,0
STARLINK-37988,2026-150K,2026-07-20T02:35:41.052192,15.75187659,.00007991,97.2845,39.6970,96.6899,263.4457,0,U,69748,999,409,.11281828E-2,.17155E-2,0
